ONEWEB-0528             
1 54643U 22166B   23304.80138514  .00000019  00000+0  13757-4 0  9997
2 54643  87.9224  74.9652 0001599  90.5773 269.5544 13.21827830 45250
ONEWEB-0539             
1 54644U 22166C   23304.61056062  .00001734  00000+0  41645-2 0  9994
2 54644  87.9217  75.0015 0002971  97.2893 262.8579 13.21842007 44773
ONEWEB-0540             
1 54645U 22166D   23304.60503615 -.00001408  00000+0 -34400-2 0  9996
2 54645  87.9227  75.0298 0002123  87.9056 272.2321 13.21836706 44762
ONEWEB-0542             
1 54646U 22166E   23304.62002272 -.00001822  00000+0 -44443-2 0  9990
2 54646  87.9224  75.0013 0002476  96.0097 264.1319 13.21836419 44771
ONEWEB-0545             
1 54647U 22166F   23304.43551814  .00000002  00000+0 -26010-4 0  9991
2 54647  87.9228  75.0787 0002179  89.4539 270.6844 13.21825790 44710
ONEWEB-0580             
1 54648U 22166G   23304.63580807  .00000077  00000+0  15424-3 0  9995
2 54648  87.9223  74.9932 0002295 100.5779 259.5614 13.21826660 44781
ONEWEB-0582             
1 54649U 22166H   23304.60267887  .00000012  00000+0 -13035-5 0  9991
2 54649  87.9228  75.0400 0001839  86.3488 273.7857 13.21826329 44756
ONEWEB-0583             
1 54650U 22166J   23304.38662376  .00000141  00000+0  30969-3 0  9995
2 54650  87.9227  75.0893 0001270  92.1674 267.9605 13.21827656 44732
